city,district,hvec,hvoc,hvgc,hvmriayn,hvventiayn,hvamyn,dutyName,dutyTel3,address,mapx,mapy,hospital_link
서울특별시,종로구,-20,38,638,Y,Y,Y,서울대학교병원,02-2072-2475,서울특별시 종로구 대학로 101,126.9990167,37.579715,http://www.snuh.org/
서울특별시,종로구,2,6,150,Y,Y,Y,강북삼성병원,02-2001-1000,서울특별시 종로구 새문안로 29 강북삼성병원,126.96775,37.5684083,http://www.kbsmc.co.kr/
서울특별시,종로구,10,6,91,Y,Y,Y,서울적십자병원,02-2002-8888,서울특별시 종로구 새문안로 9 서울적십자병원,126.9669973,37.5671804,http://www.rch.or.kr/seoul/
서울특별시,종로구,8,0,39,Y,Y,Y,세란병원,02-737-0181,서울특별시 종로구 통일로 256 세란병원,126.9574606,37.5751835,http://www.seran.co.kr/
서울특별시,중구,9,4,77,Y,Y,Y,국립중앙의료원,02-2260-7414,서울특별시 중구 을지로 245 국립중앙의료원,127.0056709,37.5672137,https://www.instagram.com/nmc_official
서울특별시,용산구,11,4,204,Y,Y,Y,순천향대학교부속서울병원,02-709-9117,서울특별시 용산구 대사관로 59,127.0042579,37.5338039,https://www.youtube.com/@SCHTV
서울특별시,성동구,15,11,332,Y,Y,Y,한양대학교병원,02-2290-8284,서울특별시 성동구 왕십리로 222-1,127.0441339,37.5596569,https://youtube.com/user/HYUnivMedical
서울특별시,광진구,2,9,301,Y,Y,Y,건국대학교병원,02-2030-5555,서울특별시 광진구 능동로 120-1 건국대학교병원,127.0718275,37.5403764,http://www.kuh.ac.kr/
서울특별시,광진구,9,4,14,Y,Y,Y,혜민병원,02-2049-9119,서울특별시 광진구 자양로 85 혜민병원,127.0836246,37.5354079,https://blog.naver.com/ehyemin012
서울특별시,동대문구,11,8,303,Y,Y,Y,경희대학교병원,02-958-8114,서울특별시 동대문구 경희대로 23,127.051852,37.5941195,http://www.khmc.or.kr
서울특별시,동대문구,10,3,33,Y,Y,Y,삼육서울병원,02-2210-3566,서울특별시 동대문구 망우로 82,127.0653065,37.5879909,http://www.symcs.co.kr
서울특별시,동대문구,8,3,53,Y,Y,Y,서울특별시동부병원,02-920-9119,서울특별시 동대문구 무학로 124,127.0313409,37.5753681,http://www.dbhosp.go.kr/
서울특별시,동대문구,1,4,65,Y,Y,Y,서울성심병원,02-966-1616,서울특별시 동대문구 왕산로 259 서울성심병원,127.0497295,37.5843076,http://www.sshosp.co.kr/
서울특별시,중랑구,7,1,50,Y,Y,Y,동부제일병원,02-490-8880,서울특별시 중랑구 망우로 511,127.1090094,37.6007084,http://www.dbjeil.co.kr/
서울특별시,중랑구,4,3,21,Y,Y,Y,녹색병원,02-490-2113,서울특별시 중랑구 사가정로49길 53 원진재단부설녹색병원,127.0859729,37.5835429,http://www.greenhospital.co.kr/
서울특별시,중랑구,6,5,251,Y,Y,Y,서울특별시서울의료원,02-2276-7403,서울특별시 중랑구 신내로 156 서울의료원,127.0978308,37.6132761,https://www.seoulmc.or.kr
서울특별시,성북구,20,8,230,Y,Y,Y,고려대학교의과대학부속병원(안암병원,02-920-5374,서울특별시 성북구 고려대로 73 고려대학교 안암병원,127.0263537,37.5870165,https://www.youtube.com/@ANAMHOSPITAL
서울특별시,도봉구,5,7,72,Y,Y,Y,한일병원,02-901-3119,서울특별시 도봉구 우이천로 308 한일병원,127.0291227,37.6461401,https://www.hanilmed.net/
서울특별시,노원구,7,4,183,Y,Y,Y,한국원자력의학원원자력병원,02-970-2620,서울특별시 노원구 노원로 75 원자력병원,127.0824198,37.6288667,https://youtube.com/@user-ch9pz9pi9w
서울특별시,노원구,8,6,188,Y,Y,Y,인제대학교상계백병원,02-950-1119,서울특별시 노원구 동일로 1342 상계백병원,127.0629908,37.6485408,http://www.paik.ac.kr/sanggye/
서울특별시,노원구,10,6,208,Y,Y,Y,노원을지대학교병원,02-970-8282,서울특별시 노원구 한글비석로 68,127.0699354,37.6364793,https://www.eulji.or.kr/
서울특별시,은평구,-6,8,201,Y,Y,Y,가톨릭대학교 은평성모병원,02-1811-7755,서울특별시 은평구 통일로 1021,126.9161912,37.6334944,Unknown
서울특별시,은평구,2,3,22,Y,Y,Y,청구성심병원,02-383-0129,서울특별시 은평구 통일로 873,126.9197005,37.6208614,https://blog.naver.com/cgss1975
서울특별시,서대문구,6,15,696,Y,Y,Y,연세대학교의과대학세브란스병원,02-2227-7777,서울특별시 서대문구 연세로 50-1,126.9408264,37.5623445,https://sev.severance.healthcare/sev/index.do
서울특별시,서대문구,8,3,62,Y,Y,Y,동신병원,02-396-9161,서울특별시 서대문구 연희로 272,126.936425,37.5813323,http://www.dshospital.co.kr/
서울특별시,양천구,7,2,60,Y,Y,Y,홍익병원,02-2600-0777,서울특별시 양천구 목동로 225 홍익병원본관,126.8636447,37.5284759,http://www.hih.or.kr/
서울특별시,양천구,1,4,25,Y,Y,Y,서울특별시서남병원,02-6300-9129,서울특별시 양천구 신정이펜1로 20,126.8331531,37.5120195,http://www.seoulsnh.or.kr
서울특별시,양천구,17,2,107,Y,Y,Y,이화여자대학교의과대학부속목동병원,02-2650-5911,서울특별시 양천구 안양천로 1071,126.8862044,37.536602,https://mokdong.eumc.ac.kr/
서울특별시,강서구,0,3,79,Y,Y,Y,이화여자대학교의과대학부속서울병원,02-6986-5119,서울특별시 양천구 안양천로 1071,126.8862044,37.536602,https://mokdong.eumc.ac.kr/
서울특별시,강서구,7,3,37,Y,Y,Y,부민병원,02-2620-0119,서울특별시 강서구 공항대로 389 부민병원,126.85095,37.5568917,https://www.youtube.com/channel/UCGvEE_C5SVxXL5qW0_UhZqA
서울특별시,구로구,7,3,27,Y,Y,Y,구로성심병원,02-2067-1515,서울특별시 구로구 경인로 427,126.8663915,37.4996958,https://gurosungsim.co.kr/
서울특별시,구로구,9,8,240,Y,Y,Y,고려대학교의과대학부속구로병원,02-2626-1550,서울특별시 구로구 구로동로 148,126.8848701,37.4920519,http://guro.kumc.or.kr/
서울특별시,금천구,8,2,22,Y,Y,Y,희명병원,02-809-0122,서울특별시 금천구 시흥대로 244,126.9005836,37.4556869,https://www.instagram.com/heemyoung_hospital
서울특별시,영등포구,12,8,235,Y,Y,Y,가톨릭대학교 여의도성모병원,02-3779-1188,서울특별시 영등포구 63로 10 여의도성모병원,126.9367516,37.5183252,http://www.cmcsungmo.or.kr/
서울특별시,영등포구,1,3,36,Y,Y,Y,명지성모병원,02-829-7800,서울특별시 영등포구 도림로 156 명지성모병원,126.8992478,37.4940033,http://www.myongji-sm.co.kr/
서울특별시,영등포구,6,1,17,Y,Y,Y,대림성모병원,02-829-9129,서울특별시 영등포구 시흥대로 657 대림성모병원,126.907359,37.490566,http://www.drh.co.kr/
서울특별시,영등포구,14,9,159,Y,Y,Y,한림대학교강남성심병원,02-829-5119,서울특별시 영등포구 신길로 1 강남성심병원,126.9086527,37.4937261,http://kangnam.hallym.or.kr/
서울특별시,영등포구,7,5,29,Y,Y,Y,성애병원,02-840-7115,서울특별시 영등포구 여의대방로53길 22 성애병원,126.9225002,37.5120273,http://www.sungae.co.kr/
서울특별시,동작구,17,5,309,Y,Y,Y,서울특별시보라매병원,02-870-2119,서울특별시 동작구 보라매로5길 20 서울특별시보라매병원,126.9239058,37.4934413,http://www.brmh.org/
서울특별시,동작구,9,6,302,Y,Y,Y,중앙대학교병원,02-6299-1338,서울특별시 동작구 흑석로 102 중앙대학교병원,126.9607839,37.506748,https://www.youtube.com/@CAUHOSPITAL
서울특별시,관악구,9,3,49,Y,Y,Y,에이치플러스양지병원,070-4665-9119,서울특별시 관악구 남부순환로 1636 에이치플러스 양지병원,126.9325691,37.4841536,https://blog.naver.com/new_yjh
서울특별시,서초구,3,14,405,Y,Y,Y,가톨릭학원가톨릭대학교서울성모병원,02-2258-2370,Unknown,127.0058206,37.5024443,http://kfh.catholic.ac.kr/
서울특별시,강남구,-3,0,254,Y,Y,Y,연세대학교의과대학강남세브란스병원,02-2019-3333,서울특별시 강남구 언주로 211 강남세브란스병원,127.0462683,37.4929296,https://gs.severance.healthcare/gs
서울특별시,강남구,0,26,594,Y,Y,Y,삼성서울병원,02-3410-2060,서울특별시 강남구 일원로 81 삼성의료원,127.0851507,37.4882976,http://www.samsunghospital.com/
서울특별시,송파구,1,6,129,Y,Y,Y,경찰병원,02-3400-1300,서울특별시 송파구 송이로 123 국립경찰병원,127.1235089,37.4963836,http://www.nph.go.kr/
서울특별시,송파구,-1,23,1201,Y,Y,Y,서울아산병원,02-3010-3333,서울특별시 송파구 올림픽로43길 88 서울아산병원,127.1079349,37.5265761,http://www.amc.seoul.kr/
서울특별시,강동구,9,10,206,Y,Y,Y,강동경희대학교의대병원,02-440-7000,서울특별시 강동구 동남로 892,127.1576732,37.553536,https://www.youtube.com/@KHNMC2006
서울특별시,강동구,9,5,192,Y,Y,Y,강동성심병원,02-2224-2358,서울특별시 강동구 성안로 150 강동성심병원,127.1353995,37.535963,http://www.kdh.or.kr
서울특별시,강동구,1,9,339,Y,Y,Y,중앙보훈병원,02-2225-1100,서울특별시 강동구 진황도로61길 53 중앙보훈병원,127.147869,37.5303392,http://seoul.bohun.or.kr/
부산광역시,중구,6,4,70,Y,Y,Y, 메리놀병원,051-461-2300,부산광역시 중구 중구로 121,129.0324148,35.1076837,https://www.youtube.com/channel/UCjlHE9RreNvcjgPaynLujMQ
부산광역시,서구,14,6,158,Y,Y,Y,고신대학교복음병원,051-990-6200,부산광역시 서구 감천로 262 고신대학교복음병원,129.0158968,35.0804374,http://www.kosinmed.or.kr/
부산광역시,서구,9,20,654,Y,Y,Y,부산대학교병원,051-240-7776,부산광역시 서구 구덕로 179,129.0188032,35.1008476,https://www.pnuh.or.kr/
부산광역시,서구,-1,8,226,Y,Y,Y,동아대학교병원,051-240-5300,부산광역시 서구 대신공원로 26,129.017539,35.1201681,http://www.damc.or.kr/
부산광역시,서구,1,1,10,Y,Y,Y,삼육부산병원,051-600-7750,부산광역시 서구 대티로 170,129.0110653,35.1127675,http://www.symcb.co.kr/
부산광역시,동구,4,4,49,Y,Y,Y,좋은문화병원,051-630-0909,부산광역시 동구 범일로 119,129.0590919,35.1408881,http://www.moonhwa.or.kr/
부산광역시,동구,6,6,7,Y,Y,Y, 봉생기념병원,051-664-4119,부산광역시 동구 중앙대로 401,129.0501906,35.1310264,http://www.bsmh.or.kr
부산광역시,영도구,6,0,23,Y,Y,Y, 해동병원,051-410-6688,부산광역시 영도구 태종로 133 해동병원,129.0438999,35.0919051,https://www.hdh.co.kr/
부산광역시,영도구,7,2,34,Y,Y,Y,영도병원,051-419-7575,부산광역시 영도구 태종로 85 영도병원,129.0405428,35.0921491,https://blog.naver.com/withydh77
부산광역시,부산진구,18,6,60,Y,Y,Y, 온종합병원,051-607-0139,부산광역시 부산진구 가야대로 721,129.0499565,35.1578994,http://www.onhospital.org/
부산광역시,부산진구,21,10,261,Y,Y,Y,인제대학교부산백병원,051-890-5995,부산광역시 부산진구 복지로 75,129.0208925,35.1461809,http://www.paik.ac.kr/busan/
부산광역시,부산진구,9,1,40,Y,Y,Y,동의병원,051-850-8777,"부산광역시 부산진구 양정로 62 동의의료원, 동의병원, 동의대학교한방병원",129.076514,35.1698202,http://www.demc.kr/
부산광역시,부산진구,8,4,133,Y,Y,Y, 춘해병원,051-608-0119,부산광역시 부산진구 중앙대로 605,129.0583895,35.1469382,http://www.choonhae.or.kr/
부산광역시,동래구,5,3,58,Y,Y,Y,동래봉생병원,051-520-5600,부산광역시 동래구 안연로109번길 27 동래봉생병원,129.0961356,35.1969224,http://www.drbs.or.kr/
부산광역시,동래구,15,5,82,Y,Y,Y,대동병원,051-550-9391,부산광역시 동래구 충렬대로 187 대동병원,129.0802032,35.2042537,http://www.ddh.co.kr/
부산광역시,동래구,5,2,4,Y,Y,Y, 광혜병원,051-504-2119,부산광역시 동래구 충렬대로 96,129.0711482,35.2070104,https://gwanghyehospital.com
부산광역시,남구,8,4,119,Y,Y,Y,부산성모병원,051-933-7119,부산광역시 남구 용호로232번길 25-14 부산성모병원,129.109125,35.110457,http://bsm.or.kr/
부산광역시,북구,9,2,47,Y,Y,Y,구포성심병원,051-330-2090,부산광역시 북구 낙동대로 1786,129.0046776,35.209721,https://www.guposs.com/kr/
부산광역시,북구,8,2,17,Y,Y,Y, 부민병원,051-330-3129,부산광역시 북구 만덕대로 59,129.0112549,35.2119078,https://www.youtube.com/channel/UCTXUOcXH33AxRSMInyVLriA
부산광역시,해운대구,7,2,7,Y,Y,Y, 해운대부민병원,051-602-8119,부산광역시 해운대구 해운대로 584,129.1556752,35.1614498,http://www.bumin.co.kr/haeundae/;jsessionid=697E3B78F83EBE8A7DE99C56F945F47F
부산광역시,해운대구,-2,8,248,Y,Y,Y,인제대학교 해운대백병원,051-797-0135,부산광역시 해운대구 해운대로 875 인제대학교해운대백병원,129.182013,35.1734429,http://haeundae.paik.ac.kr
부산광역시,연제구,9,6,156,Y,Y,Y,부산광역시의료원,051-607-2140,부산광역시 연제구 월드컵대로 359 부산의료원,129.0592351,35.1872821,https://www.instagram.com/busan_medical_center/
부산광역시,수영구,10,Unknown,26,Y,Y,Y, 좋은강안병원,051-610-9119,부산광역시 수영구 수영로 493 의료법인은성의료재단좋은강안병원,129.1106217,35.1500684,https://www.gang-an.or.kr/
부산광역시,수영구,15,4,71,Y,Y,Y,비에이치에스한서병원,051-998-1119,부산광역시 수영구 수영로 615,129.1131037,35.16088,http://www.hanseohospital.or.kr/
부산광역시,수영구,5,5,25,Y,Y,Y, 센텀종합병원,051-750-5119,부산광역시 수영구 수영로679번길 8,129.1144554,35.166733,Unknown
부산광역시,사상구,8,5,20,Y,Y,Y,좋은삼선병원,051-310-9416,부산광역시 사상구 가야대로 326,129.0082462,35.150416,https://youtube.com/@goodsamsun?si=fLYwNC-mtMOKg1zz
부산광역시,사상구,10,6,23,Y,Y,Y, 부산보훈병원,051-601-6180,부산광역시 사상구 백양대로 420,129.006575,35.153382,http://busan.bohun.or.kr/
부산광역시,기장군,7,3,16,Y,Y,Y,기장병원,051-723-2119,부산광역시 기장군 기장읍 대청로72번길 6 기장병원,129.2164241,35.235968,http://www.gjhp.kr/
부산광역시,기장군,5,3,39,Y,Y,Y,동남권원자력의학원원자력병원,051-720-5911,부산광역시 기장군 장안읍 좌동길 40 동남권원자력의학원,129.2435492,35.3214001,https://www.dirams.re.kr/
대구광역시,중구,7,3,57,Y,Y,Y,곽병원,053-605-3333,대구광역시 중구 국채보상로 531 곽병원,128.5885849,35.8710213,https://www.instagram.com/kwak_hospital
대구광역시,중구,11,1,72,Y,Y,Y,계명대학교대구동산병원,053-250-8481,대구광역시 중구 달성로 56 계명대학교 대구동산병원,128.5831322,35.8694728,https://daegu.dsmc.or.kr:49880/
대구광역시,중구,1,12,273,Y,Y,Y,경북대학교병원,053-200-5100,대구광역시 북구 호국로 807,128.5646727,35.9564206,http://www.knuch.kr
대구광역시,동구,13,6,61,Y,Y,Y,강남종합병원,053-980-9018,대구광역시 동구 동촌로 209,128.6639278,35.8826783,https://gangnamhosp.co.kr
대구광역시,동구,0,5,206,Y,Y,Y,대구파티마병원,053-940-7119,대구광역시 동구 아양로 99 파티마병원,128.6244071,35.884261,http://www.fatima.or.kr/
대구광역시,서구,5,4,11,Y,Y,Y,구병원,053-557-7119,대구광역시 달서구 감삼북길 141,128.5413274,35.8506543,http://www.kooh.co.kr
대구광역시,서구,11,16,335,Y,Y,Y,계명대학교동산병원,053-258-6301,대구광역시 달서구 달구벌대로 1035,128.4802188,35.8540994,http://dongsan.dsmc.or.kr/
대구광역시,서구,2,3,26,Y,Y,Y,더블유병원,053-550-5019,대구광역시 수성구 화랑로 58 더블유여성병원,128.6339776,35.8708473,http://www.w-women.com
대구광역시,서구,8,5,39,Y,Y,Y,대구보훈병원,053-630-7014,대구광역시 달서구 월곡로 60,128.5519784,35.8028205,http://daegu.bohun.or.kr/
대구광역시,서구,11,3,33,Y,Y,Y,삼일병원,053-659-3119,대구광역시 달서구 월배로 436,128.5535888,35.8323941,http://31hosp.com
대구광역시,서구,9,4,33,Y,Y,Y,나사렛종합병원,053-643-3119,대구광역시 달서구 월배로 97,128.5250772,35.8147313,http://www.nazareth.co.kr/
대구광역시,서구,16,4,62,Y,Y,Y,대구의료원,053-560-7288,대구광역시 서구 평리로 157 대구의료원,128.540587,35.85964,http://www.daegumc.co.kr/
대구광역시,남구,7,2,8,Y,Y,Y,드림종합병원,053-640-8575,대구광역시 남구 대명로 153 드림종합병원,128.5745081,35.8396592,https://www.instagram.com/dreamhosp
대구광역시,남구,12,14,359,Y,Y,Y,대구가톨릭대학교병원,053-650-3025,대구광역시 남구 두류공원로17길 33 대구가톨릭대학교병원,128.5679969,35.8436077,http://www.dcmc.co.kr/
대구광역시,남구,7,2,43,Y,Y,Y,대구굿모닝병원,053-620-9119,대구광역시 남구 성당로 224,128.5740875,35.853007,http://www.gmhospital.co.kr/
대구광역시,남구,21,20,309,Y,Y,Y,영남대학교병원,053-620-3177,대구광역시 남구 현충로 170,128.5848999,35.847407,http://www.yumc.ac.kr/
대구광역시,북구,9,3,33,Y,Y,Y,대구가톨릭대학교칠곡가톨릭병원,053-320-2111,대구광역시 북구 칠곡중앙대로 440,128.5493894,35.9348613,http://www.tcmcch.co.kr/
대구광역시,북구,4,12,343,Y,Y,Y,칠곡경북대학교병원,053-200-2100,대구광역시 북구 호국로 807,128.5646727,35.9564206,http://www.knuch.kr
대구광역시,수성구,7,3,23,Y,Y,Y,천주성삼병원,053-790-0555,대구광역시 수성구 달구벌대로 3190,128.7055749,35.8402989,http://www.sungsam21.com/
대구광역시,달서구,5,4,11,Y,Y,Y,구병원,053-557-7119,대구광역시 달서구 감삼북길 141,128.5413274,35.8506543,http://www.kooh.co.kr
대구광역시,달서구,11,16,335,Y,Y,Y,계명대학교동산병원,053-258-6301,대구광역시 달서구 달구벌대로 1035,128.4802188,35.8540994,http://dongsan.dsmc.or.kr/
대구광역시,달서구,2,3,26,Y,Y,Y,더블유병원,053-550-5019,대구광역시 수성구 화랑로 58 더블유여성병원,128.6339776,35.8708473,http://www.w-women.com
대구광역시,달서구,8,5,39,Y,Y,Y,대구보훈병원,053-630-7014,대구광역시 달서구 월곡로 60,128.5519784,35.8028205,http://daegu.bohun.or.kr/
대구광역시,달서구,11,3,33,Y,Y,Y,삼일병원,053-659-3119,대구광역시 달서구 월배로 436,128.5535888,35.8323941,http://31hosp.com
대구광역시,달서구,9,4,33,Y,Y,Y,나사렛종합병원,053-643-3119,대구광역시 달서구 월배로 97,128.5250772,35.8147313,http://www.nazareth.co.kr/
대구광역시,달성,11,1,72,Y,Y,Y,계명대학교대구동산병원,053-250-8481,대구광역시 중구 달성로 56 계명대학교 대구동산병원,128.5831322,35.8694728,https://daegu.dsmc.or.kr:49880/
인천광역시,중구,8,4,29,Y,Y,Y,인천기독병원,032-270-8300,인천광역시 중구 답동로30번길 10 인천기독병원,126.6321217,37.4712156,http://www.goich.co.kr/
인천광역시,중구,4,3,257,Y,Y,Y,인하대학교의과대학부속병원,032-890-2301,인천광역시 중구 인항로 27,126.6340954,37.4586786,http://www.inha.com/
인천광역시,동구,4,12,536,Y,Y,Y, 길병원,032-460-3012,인천광역시 남동구 남동대로774번길 21,126.7092257,37.452171,http://www.gilhospital.com/
인천광역시,동구,13,5,76,Y,Y,Y,인천힘찬종합병원,032-459-3168,인천광역시 남동구 논현로 72,126.714676,37.4011304,http://www.himchangeneral.com
인천광역시,동구,14,6,67,Y,Y,Y,인천광역시의료원,032-580-6119,인천광역시 동구 방축로 217 인천광역시의료원,126.66875,37.4787429,http://www.icmc.or.kr/
인천광역시,동구,3,4,14,Y,Y,Y, 인천백병원,032-280-8119,인천광역시 동구 샛골로 214 인천백병원,126.6457359,37.4817429,http://ib.ibsh.kr/
인천광역시,연수구,14,3,39,Y,Y,Y,나사렛국제병원,032-899-9699,인천광역시 연수구 먼우금로 98,126.6705107,37.4080805,https://blog.naver.com/nasaret-best
인천광역시,연수구,7,3,86,Y,Y,Y,인천적십자병원,032-899-4118,인천광역시 연수구 원인재로 263 인천적십자병원,126.6896544,37.4184945,https://blog.naver.com/in_cheon_stagram
인천광역시,남동구,4,12,536,Y,Y,Y, 길병원,032-460-3012,인천광역시 남동구 남동대로774번길 21,126.7092257,37.452171,http://www.gilhospital.com/
인천광역시,남동구,13,5,76,Y,Y,Y,인천힘찬종합병원,032-459-3168,인천광역시 남동구 논현로 72,126.714676,37.4011304,http://www.himchangeneral.com
인천광역시,부평구,3,8,223,Y,Y,Y,가톨릭대학교 인천성모병원,032-280-6107,인천광역시 부평구 동수로 56,126.7248987,37.4848309,https://www.youtube.com/ecmcism
인천광역시,부평구,15,2,67,Y,Y,Y, 부평세림병원,032-509-5777,인천광역시 부평구 부평대로 175 부평세림병원,126.7199857,37.5068719,http://www.iserim.co.kr/
인천광역시,계양구,8,2,33,Y,Y,Y,인천병원,032-240-8119,인천광역시 부평구 무네미로 446,126.7536332,37.4767018,https://www.comwel.or.kr/incheon/index.jsp
인천광역시,계양구,10,3,71,Y,Y,Y,한림병원,032-540-9119,인천광역시 계양구 장제로 722,126.7343513,37.5320981,http://www.hallym.net/
인천광역시,서구,15,0,96,Y,Y,Y,가톨릭관동대학교국제성모병원,032-290-3065,인천광역시 서구 심곡로100번길 25 가톨릭관동대학교 국제성모병원,126.6836102,37.5424164,https://youtube.com/@16008291
인천광역시,서구,9,0,29,Y,Y,Y,온누리병원,032-568-9112,인천광역시 서구 완정로 199,126.6543117,37.6028571,https://blog.naver.com/567_6200
인천광역시,서구,8,8,98,Y,Y,Y,나은병원,032-584-4119,인천광역시 서구 원적로 23,126.6797292,37.4890717,https://blog.naver.com/naeun4119
인천광역시,서구,16,5,57,Y,Y,Y,검단탑병원,032-590-0077,인천광역시 서구 청마로19번길 5 검단탑병원,126.6711791,37.5924835,https://tophospital.co.kr
인천광역시,서구,8,6,148,Y,Y,Y, 뉴성민병원,032-726-1190,인천광역시 서구 칠천왕로33번길 17 뉴성민병원,126.6698644,37.5096077,http://www.smgh.co.kr
인천광역시,강화군,10,1,141,N1,Y,Y,비에스종합병원,032-290-0119,인천광역시 강화군 강화읍 충렬사로 31,126.4855875,37.736233,http://bs.ibsh.kr/
인천광역시,옹진군,4,1,30,N1,Y,Y,인천광역시의료원백령병원,032-836-1732,인천광역시 옹진군 백령면 백령로 233 인천광역시의료원 백령병원,124.7209794,37.9680656,Unknown
광주광역시,동구,12,13,409,Y,Y,Y,전남대학교병원,062-220-6801,광주광역시 동구 제봉로 42 전남대학교병원,126.9215805,35.1418094,http://www.cnuh.com/
광주광역시,동구,15,9,207,Y,Y,Y,조선대학교병원,062-220-3280,광주광역시 동구 필문대로 365 조선대학교병원,126.9261467,35.1390537,http://hosp.chosun.ac.kr/
광주광역시,서구,17,2,43,Y,Y,Y,서광병원,062-600-8119,광주광역시 서구 금화로59번길 6 서광병원,126.8555877,35.1326051,Unknown
광주광역시,서구,8,1,48,Y,Y,Y,상무병원,062-600-7119,광주광역시 서구 상무자유로 181-7,126.8539,35.152407,http://www.sangmoohospital.co.kr/
광주광역시,서구,14,4,44,Y,Y,Y,광주한국병원,062-380-3119,광주광역시 서구 월드컵4강로 223,126.8688163,35.1562165,http://www.hkh.co.kr/
광주광역시,서구,5,2,61,Y,Y,Y,미래로21병원,062-450-1119,광주광역시 서구 화운로 1,126.8853129,35.1410763,http://www.mr21mc.kr/
광주광역시,남구,9,3,90,Y,Y,Y,동아병원,062-650-2515,광주광역시 남구 대남대로 238,126.8999505,35.1348131,http://www.dongahospital.co.kr/
광주광역시,남구,8,3,58,N,Y,Y,광주씨티병원,062-460-7119,광주광역시 남구 서문대로654번길 5,126.8995001,35.1177842,http://www.ct119.co.kr
광주광역시,남구,10,4,66,Y,Y,Y,광주기독병원,062-650-5119,광주광역시 남구 양림로 37,126.9118749,35.136665,http://www.kch.or.kr/
광주광역시,북구,4,2,19,Y,Y,Y,광주병원,062-260-7119,광주광역시 북구 면앙로139번길 51 광주병원,126.928138,35.1789349,http://gwangjuhosp.co.kr/
광주광역시,북구,9,3,42,Y,Y,Y,운암한국병원,062-608-8119,광주광역시 북구 북문대로 191 한국병원,126.8696693,35.1850041,http://www.uhkh.co.kr/
광주광역시,북구,5,4,44,Y,Y,Y,광주현대병원,062-570-0119,광주광역시 북구 설죽로 291,126.897925,35.185676,http://www.hyundae-hosp.co.kr/
광주광역시,북구,8,1,44,Y,Y,Y,광주일곡병원,062-608-7119,광주광역시 북구 양일로 309 일곡병원,126.897588,35.202826,http://www.ilgok.co.kr/
광주광역시,북구,9,2,55,Y,Y,Y,광주희망병원,062-608-6119,광주광역시 북구 하서로 429 희망병원,126.8746441,35.2134569,https://blog.naver.com/gwangju-heemang
광주광역시,광산구,6,2,46,Y,Y,Y,신가병원,062-610-8119,광주광역시 광산구 목련로 316 신가병원,126.8296072,35.1774864,http://www.singahospital.co.kr/
광주광역시,광산구,7,2,69,Y,Y,Y,광주센트럴병원,062-960-5119,광주광역시 광산구 수완로 6,126.8291069,35.1857756,http://www.gwangjucentralhospital.co.kr
광주광역시,광산구,12,3,46,Y,Y,Y,KS병원,062-975-9119,광주광역시 광산구 왕버들로 220,126.8332983,35.1978115,http://www.kshosp.com/
광주광역시,광산구,17,4,17,Y,Y,Y,하남성심병원,062-958-1250,광주광역시 광산구 용아로 259,126.8009586,35.1666556,http://www.sungshim.co.kr/
광주광역시,광산구,9,3,60,Y,Y,Y,광주수완병원,062-958-1119,광주광역시 광산구 임방울대로 370,126.8242,35.1931393,http://www.suwanhospital.com/
광주광역시,광산구,7,7,62,Y,Y,Y,광주보훈병원,062-602-6119,광주광역시 광산구 첨단월봉로 99 보훈병원,126.849672,35.2079032,http://gwangju.bohun.or.kr/000main/index.php
광주광역시,광산구,20,3,92,Y,Y,Y,첨단종합병원,062-601-8119,광주광역시 광산구 첨단중앙로170번길 59,126.84515,35.2211429,http://www.cheomdanhosp.co.kr/
대전광역시,동구,0,3,-10,Y,Y,Y,대전한국병원,042-606-1119,대전광역시 동구 동서대로 1672 대전한국병원,127.4358122,36.3481706,http://djh.kr/
대전광역시,중구,5,8,243,Y,Y,Y,성모병원,042-220-9118,대전광역시 중구 대흥로 64 가톨릭대학교대전성모병원,127.4201629,36.323042,https://www.cmcdj.or.kr/
대전광역시,중구,5,2,22,Y,Y,Y,대전선병원,042-220-8129,대전광역시 중구 목중로 29 선병원,127.4104138,36.3360668,http://www.sunhospital.com/main/
대전광역시,중구,6,12,275,Y,Y,Y,충남대학교병원,042-280-8129,대전광역시 중구 문화로 282 충남대학교병원,127.415363,36.316908,http://www.cnuh.co.kr/
대전광역시,서구,7,1,101,Y,Y,Y,대청병원,042-589-0119,대전광역시 서구 계백로 1322,127.3705716,36.3082388,https://blog.naver.com/range12088
대전광역시,서구,19,13,251,Y,Y,Y,건양대학교병원,042-600-9119,대전광역시 서구 관저동로 158,127.342613,36.306642,https://www.youtube.com/channel/UCJF6ZR9rxjXGnielM0k0aYg
대전광역시,서구,10,12,202,Y,Y,Y,대전을지대학교병원,042-259-1119,대전광역시 서구 둔산서로 95,127.3820744,36.3553609,http://www.emc.ac.kr/default.asp
대전광역시,유성구,10,1,61,Y,Y,Y,유성선병원,042-609-1119,대전광역시 유성구 북유성대로 93,127.3249507,36.3751715,https://blog.naver.com/sun_medical
대전광역시,대덕구,5,5,25,Y,Y,Y,대전보훈병원,042-939-0100,대전광역시 대덕구 신탄진동 대청로82번길 147,127.439686,36.4473107,Unknown
울산광역시,중구,21,4,86,Y,Y,Y,동강병원,052-241-1190,울산광역시 중구 태화로 239 동강병원,129.3019631,35.553426,http://www.dkmc.or.kr/
울산광역시,남구,12,7,27,Y,Y,Y,중앙병원,052-226-1119,울산광역시 남구 문수로 472,129.3046446,35.5322423,http://www.ulsanjoongang.co.kr/
울산광역시,남구,6,2,41,Y,Y,Y,좋은삼정병원,052-220-7600,울산광역시 남구 북부순환도로 51 좋은삼정병원,129.2688242,35.5528955,http://www.sam-jeong.or.kr/
울산광역시,남구,14,1,13,Y,Y,Y,울산병원,052-259-5119,울산광역시 남구 월평로171번길 13 울산병원,129.3231103,35.5462648,http://www.ush.kr/
울산광역시,동구,-1,9,265,Y,Y,Y,울산공업학원울산대학교병원,052-250-7000,울산광역시 동구 대학병원로 25,129.4280828,35.5203507,Unknown
울산광역시,북구,15,5,7,Y,Y,Y,울산시티병원,052-280-9119,울산광역시 북구 산업로 1007,129.359,35.582942,http://www.cityhospital.co.kr/
울산광역시,울주군,9,1,83,Y,Y,Y,서울산보람병원,052-255-7119,울산광역시 울주군 삼남읍 중평로 53,129.1210035,35.5597986,http://seoulsanboram.ilikedoctor.co.kr/
세종, ,6,1,71,Y,Y,Y,여주병원,031-880-7754,경기도 여주시 청심로 39 세종여주병원,127.6253003,37.3014839,http://세종여주병원.com
세종, ,7,4,68,Y,Y,Y,충남대학교병원,044-995-3010,세종특별자치시 보듬7로 20,127.2580882,36.5195068,https://www.instagram.com/
세종, ,8,3,106,Y,Y,Y, 엔케이병원,044-850-7705,세종특별자치시 한누리대로 161,127.2622579,36.4796411,http://nksjhsp.co.kr/
경기도,수원시 장안구,11,3,60,Y,Y,Y,경기도의료원수원병원,031-888-0119,경기도 수원시 장안구 수성로245번길 69 경기도의료원 수원병원,126.9963375,37.2918917,https://www.medical.or.kr/suwon/index.do
경기도,수원시 권선구,7,5,19,Y,Y,Y,화홍병원,031-8021-6829,경기도 수원시 권선구 호매실로90번길 98,126.9639048,37.260206,http://www.hwahonghospital.com
경기도,수원시 팔달구,8,2,39,Y,Y,Y,윌스기념병원,031-240-6119,경기도 안양시 동안구 경수대로 560,126.958234,37.3727681,https://www.youtube.com/@anywiltse
경기도,수원시 팔달구,8,2,38,Y,Y,Y,동수원병원,031-210-0119,경기도 수원시 팔달구 중부대로 165 동수원병원,127.0345486,37.2780648,http://www.dswhosp.co.kr/
경기도,수원시 팔달구,11,11,222,Y,Y,Y,가톨릭대학교성빈센트병원,031-249-7370,경기도 수원시 팔달구 중부대로 93 성빈센트병원,127.0274271,37.2779855,http://www.cmcvincent.or.kr/
경기도,수원시 영통구,13,12,254,Y,Y,Y,아주대학교병원,031-219-7777,경기도 수원시 영통구 월드컵로 164,127.0476837,37.2794612,http://hosp.ajoumc.or.kr/
경기도,성남시 수정구,8,4,31,Y,Y,Y,성남정병원,031-750-6003,경기도 성남시 수정구 수정로 76,127.1289853,37.4398884,http://www.chungsh.com/
경기도,성남시 수정구,15,7,138,Y,Y,Y,성남시의료원,031-738-7300,경기도 성남시 수정구 수정로171번길 10,127.1391704,37.445108,https://www.scmc.kr/
경기도,성남시 중원구,9,3,112,Y,Y,Y,성남중앙병원,031-799-5599,경기도 성남시 중원구 산성대로476번길 12,127.1619932,37.4528496,http://www.schosp.co.kr/
경기도,성남시 분당구,-27,15,419,Y,Y,Y,분당서울대학교병원,031-787-3119,경기도 성남시 분당구 구미로173번길 82,127.1234065,37.3516694,http://www.snubh.org/
경기도,성남시 분당구,24,5,97,Y,Y,Y,국군수도병원,031-725-6119,경기도 성남시 분당구 새마을로177번길 81,127.1505439,37.3920995,http://afmd.mnd.go.kr
경기도,성남시 분당구,5,2,118,Y,Y,Y,분당제생병원,031-779-0119,경기도 성남시 분당구 서현로180번길 20,127.1216801,37.3881522,http://www.dmc.or.kr/
경기도,성남시 분당구,14,16,262,Y,Y,Y,차의과학대학교분당차병원,031-780-5840,경기도 성남시 분당구 야탑로65번길 16 분당차병원 신관,127.1263712,37.4110576,http://bundangwoman.chamc.co.kr/
경기도,의정부시,4,3,75,Y,Y,Y,의정부백병원,031-842-1211,경기도 의정부시 금신로 322 의정부백병원,127.0622374,37.7453262,http://upaik.co.kr/
경기도,의정부시,11,4,107,Y,Y,Y,의정부을지대학교병원,031-8074-0119,경기도 의정부시 동일로 712,127.0506997,37.7518185,https://www.uemc.ac.kr/index.jsp
경기도,의정부시,15,6,197,Y,Y,Y,가톨릭대학교의정부성모병원,031-820-5200,경기도 의정부시 천보로 271 가톨릭대학교 의정부성모병원,127.0777625,37.7587045,http://www.cmcujb.or.kr/
경기도,의정부시,10,3,51,Y,Y,Y,추병원,031-845-8313,경기도 의정부시 평화로 650 추병원,127.0450722,37.7497898,http://www.choomc.com/
경기도,의정부시,9,3,33,Y,Y,Y,경기도의료원의정부병원,031-828-5119,경기도 의정부시 흥선로 142 경기도도립의료원의정부병원,127.0425004,37.7411609,https://www.medical.or.kr/uijeongbu/index.do
경기도,만안구,7,2,49,Y,Y,Y,안양샘병원,031-467-9119,경기도 안양시 만안구 삼덕로 9,126.9243939,37.3935234,http://anyang.samhospital.com/
경기도,동안구,12,12,270,Y,Y,Y,한림대학교성심병원,031-380-4129,경기도 안양시 동안구 관평로170번길 22 한림대학교성심병원,126.9620529,37.3917575,http://hallym.hallym.or.kr/
경기도,부천시,14,2,58,Y,Y,Y,부천병원,032-340-1119,경기도 부천시 원미구 길주로 195 3층,126.7643245,37.5050098,https://www.365warmheart.co.kr
경기도,부천시,17,10,188,Y,Y,Y,가톨릭대학교부천성모병원,032-340-2100,경기도 부천시 원미구 소사로 327,126.7924166,37.4871165,http://www.cmcbucheon.or.kr/
경기도,부천시,12,14,252,Y,Y,Y,순천향대학교부속부천병원,032-621-5117,경기도 부천시 원미구 조마루로 170,126.7629626,37.4986997,http://www.schmc.ac.kr/bucheon/kor/index.do
경기도,부천시,3,1,44,Y,Y,Y,다니엘종합병원,032-670-0119,경기도 부천시 원미구 중동로 361,126.7694764,37.5123067,https://booking.naver.com/
경기도,광명시,10,3,120,Y,Y,Y,중앙대학교광명병원,02-2222-1338,경기도 광명시 덕안로 110 중앙대학교광명병원,126.885556,37.4241394,https://gh.cauhs.or.kr
경기도,광명시,2,3,30,Y,Y,Y,광명성애병원,02-2680-7115,경기도 광명시 디지털로 36 광명성애병원,126.8717821,37.4735094,https://h.ksungae.co.kr/index.do
경기도,평택시,7,2,46,Y,Y,Y,박병원,031-662-4119,경기도 평택시 송탄로 33 PMC박병원,127.0570008,37.0482657,https://www.parkmedical.co.kr
경기도,평택시,10,0,26,Y,Y,Y,굿모닝병원,031-5182-7582,경기도 평택시 중앙로 338,127.1204113,36.9906277,http://www.goodmhospital.co.kr/
경기도,평택시,9,5,146,Y,Y,Y,박애병원,031-650-9219,경기도 평택시 평택2로20번길 3,127.089075,36.9930802,https://blog.naver.com/baghp
경기도,평택시,13,6,77,Y,Y,Y,평택성모병원,070-5012-0119,경기도 평택시 평택로 284,127.0743332,37.0083319,http://www.ptsm.co.kr/
경기도,상록구,5,2,86,Y,Y,Y,근로복지공단안산병원,031-500-1119,경기도 안산시 상록구 구룡로 87,126.8741389,37.3167268,https://www.comwel.or.kr/ansan/index.jsp
경기도,상록구,14,2,40,Y,Y,Y,사랑의병원,031-414-6656,경기도 안산시 상록구 예술광장로 69,126.844766,37.32702,http://www.sarangmc.co.kr/
경기도,단원구,13,6,56,Y,Y,Y,한도병원,031-8040-1129,경기도 안산시 단원구 선부광장로 103,126.8076293,37.3340708,http://www.handoh.com/
경기도,단원구,10,4,53,Y,Y,Y,단원병원,031-8040-5911,경기도 안산시 단원구 원포공원1로 20,126.8130425,37.3001983,http://www.dwhosp.co.kr
경기도,단원구,17,11,255,Y,Y,Y,고려대학교의과대학부속안산병원,031-412-5381,경기도 안산시 단원구 적금로 123 고려대학병원,126.8249033,37.3185144,http://ansan.kumc.or.kr/main/index.do
경기도,덕양구,7,5,144,Y,Y,Y,명지병원,031-810-7119,경기도 고양시 덕양구 화수로14번길 55,126.8312622,37.6419949,http://www.mjh.or.kr/
경기도,일산동구,8,5,215,Y,Y,Y,동국대학교일산불교병원,031-961-7777,경기도 고양시 일산동구 동국로 27 동국대학교 일산병원,126.8064233,37.6763969,https://blog.naver.com/idumc
경기도,일산동구,9,8,245,Y,Y,Y,국민건강보험공단일산병원,031-900-0761,경기도 고양시 일산동구 일산로 100 일산병원,126.7933092,37.6455486,http://www.nhimc.or.kr/
경기도,일산동구,-4,3,107,Y,Y,Y,국립암센터,031-920-0119,경기도 고양시 일산동구 일산로 323 국립암센터,126.7834097,37.6632301,https://www.facebook.com/nationalcancercenter
경기도,일산동구,8,3,16,N1,Y,Y,일산차병원,031-782-8587,경기도 고양시 일산동구 중앙로 1205,126.7757717,37.6540806,https://ilsan.chamc.co.kr/
경기도,일산서구,8,8,168,Y,Y,Y,인제대학교일산백병원,031-910-9600,경기도 고양시 일산서구 주화로 170 일산백병원,126.750433,37.6743137,http://www.paik.ac.kr/ilsan/
경기도,구리시,4,3,232,Y,Y,Y,한양대학교구리병원,1644-9118,경기도 구리시 경춘로 153 한양대학교구리병원,127.1324272,37.6012985,http://guri.hyumc.com/
경기도,남양주시,14,4,143,Y,Y,Y,남양주한양병원,031-510-0119,경기도 남양주시 오남읍 양지로 47-55 남양주한양병원,127.2043933,37.6823474,http://www.hynyj.co.kr/
경기도,남양주시,6,6,108,Y,Y,Y,현대병원,031-574-0114,경기도 남양주시 진접읍 봉현로 21,127.1799562,37.7154673,http://www.hdgh.co.kr/
경기도,남양주시,7,3,26,Y,Y,Y,엘병원,031-527-6119,경기도 남양주시 퇴계원읍 퇴계원로 20 엘병원,127.1410487,37.6487335,http://www.elhosp.com
경기도,오산시,17,4,60,Y,Y,Y,오산한국병원,031-378-5119,경기도 오산시 밀머리로1번길 16,127.0753662,37.1412709,https://blog.naver.com/oshankook1
경기도,시흥시,15,0,33,Y,Y,Y,센트럴병원,031-8041-3019,경기도 시흥시 공단1대로 237,126.7281266,37.3369083,https://blog.naver.com/central3001
경기도,시흥시,9,5,45,Y,Y,Y,시화병원,031-5189-0567,경기도 시흥시 군자천로 381 시화병원,126.7371914,37.3500741,http://www.shhosp.co.kr
경기도,시흥시,10,2,26,Y,Y,Y,신천연합병원,031-310-6661,경기도 시흥시 복지로 57,126.7894932,37.4445152,http://www.suh.or.kr/
경기도,군포시,13,2,43,Y,Y,Y,지샘병원,031-389-3119,경기도 군포시 군포로 591,126.9473352,37.3588428,http://www.gsamhospital.com/
경기도,군포시,11,2,69,Y,Y,Y,원광대학교산본병원,031-390-2345,경기도 군포시 산본로 321,126.9335764,37.3594242,http://www.wmcsb.co.kr/
경기도,처인구,10,2,122,Y,Y,Y,용인서울병원,031-336-0119,경기도 용인시 처인구 고림로 81 용인서울병원,127.2144906,37.2403176,http://yishospital.com
경기도,처인구,13,0,52,Y,Y,Y,명주병원,1522-8119,경기도 용인시 처인구 금령로39번길 8-6 명주병원,127.2010837,37.2354076,https://mj-hospital.com
경기도,처인구,9,4,57,Y,Y,Y,다보스병원,031-8021-2130,경기도 용인시 처인구 백옥대로1082번길 18,127.2114647,37.2314882,http://www.davoshospital.co.kr/
경기도,기흥구,1,5,38,Y,Y,Y,연세대학교의과대학용인세브란스병원,031-5189-9001,경기도 용인시 기흥구 동백죽전대로 363,127.1485144,37.270805,http://yi.severance.healthcare
경기도,기흥구,12,4,78,Y,Y,Y,강남병원,031-300-0119,경기도 용인시 기흥구 중부대로 411,127.1115072,37.2737515,https://blog.naver.com/knmcknmc
경기도,파주시,11,2,57,Y,Y,Y,메디인병원,031-570-7912,경기도 파주시 금릉역로 190 1층,126.7666689,37.7610732,http://www.medi-in.co.kr/
경기도,파주시,15,1,64,Y,Y,Y,경기도의료원파주병원,031-940-9119,경기도 파주시 중앙로 207 경기도립의료원파주병원,126.7801502,37.7550649,https://www.medical.or.kr/paju/index.do
경기도,이천시,17,2,56,Y,Y,Y,경기도의료원이천병원,031-630-4333,경기도 이천시 경충대로 2742 경기도의료원이천병원,127.4330562,37.2828594,http://www.medical.or.kr/icheon/index.do
경기도,안성시,9,4,86,Y,Y,Y,경기도의료원안성병원,031-8046-5119,경기도 안성시 남파로 95,127.2602193,37.0171792,http://www.medical.or.kr/ansung/index.do
경기도,안성시,9,3,51,Y,Y,Y,안성성모병원,031-675-8275,경기도 안성시 시장길 58,127.2709213,37.0062179,http://www.ansmc.co.kr
경기도,김포시,6,3,14,Y,Y,Y,김포우리병원,031-999-1119,경기도 김포시 감암로 11 김포우리병원,126.710733,37.6323325,http://www.gwhospital.co.kr/
경기도,김포시,10,2,30,Y,Y,Y,뉴고려병원,031-980-9119,경기도 김포시 김포한강3로 283,126.6601837,37.6408873,http://www.nkhospital.net/
경기도,화성시,9,3,63,Y,Y,Y,화성디에스병원,031-5180-7777,경기도 화성시 남양읍 시청로160번길 46-13 화성디에스병원,126.8257516,37.1992996,https://www.nyds.co.kr/
경기도,화성시,22,9,242,Y,Y,Y,한림대학교동탄성심병원,031-8086-2119,경기도 화성시 큰재봉길 7,127.0801288,37.2166283,http://dongtan.hallym.or.kr/
경기도,화성시,7,3,38,Y,Y,Y,화성중앙종합병원,031-371-7998,경기도 화성시 향남읍 발안로 5,126.9108361,37.1312957,http://www.hjhospital.co.kr/
경기도,화성시,9,4,9,Y,Y,Y,원광종합병원,031-8077-7219,경기도 화성시 화산북로 21,127.0081671,37.2101077,https://www.instagram.com/wonkwang17
경기도,광주시,6,2,43,Y,Y,Y,참조은병원,031-881-9119,경기도 광주시 광주대로 45,127.260254,37.4109626,http://www.chamhosp.co.kr/
경기도,양주시,14,4,143,Y,Y,Y,남양주한양병원,031-510-0119,경기도 남양주시 오남읍 양지로 47-55 남양주한양병원,127.2043933,37.6823474,http://www.hynyj.co.kr/
경기도,양주시,6,6,108,Y,Y,Y,현대병원,031-574-0114,경기도 남양주시 진접읍 봉현로 21,127.1799562,37.7154673,http://www.hdgh.co.kr/
경기도,양주시,7,3,26,Y,Y,Y,엘병원,031-527-6119,경기도 남양주시 퇴계원읍 퇴계원로 20 엘병원,127.1410487,37.6487335,http://www.elhosp.com
경기도,포천시,6,2,68,Y,Y,Y, 포천우리병원,031-541-8282,경기도 포천시 소흘읍 호국로 661,127.1481862,37.827471,http://www.swoori.co.kr/
경기도,포천시,16,4,62,Y,Y,Y,경기도의료원포천병원,031-539-9119,경기도 포천시 포천로 1648,127.19828,37.9033162,http://www.pomc.or.kr/
경기도,여주시,6,1,71,Y,Y,Y,여주병원,031-880-7754,경기도 여주시 청심로 39 세종여주병원,127.6253003,37.3014839,http://세종여주병원.com
경기도,연천군,10,2,49,N1,Y,Y,연천군보건의료원,031-839-4119,경기도 연천군 은대성로 95 연천군보건의료원,127.0609769,38.0234715,https://www.yeoncheon.go.kr/health/index.yeoncheon
경기도,양평군,4,3,24,Y,Y,Y,양평병원,031-770-5176,경기도 양평군 양평읍 중앙로 129 양평길병원,127.5035412,37.4938652,http://www.ypghosp.co.kr/
강원,춘천시,4,7,286,Y,Y,Y,강원대학교병원,033-258-2245,강원특별자치도 춘천시 백령로 156,127.7448909,37.8751611,https://www.knuh.or.kr/main/main.asp
강원,춘천시,14,6,93,Y,Y,Y,한림대학교춘천성심병원,033-240-5219,강원특별자치도 춘천시 삭주로 77,127.7399592,37.8840791,Unknown
강원,원주시,4,3,19,Y,Y,Y,강원특별자치도원주의료원,033-760-4701,강원특별자치도 원주시 서원대로 387 강원특별자치도원주의료원,127.949225,37.332608,http://www.kwmc.or.kr/
강원,원주시,7,3,79,Y,Y,Y,성지병원,033-760-3119,강원특별자치도 원주시 원일로 22,127.9541859,37.3454767,http://www.sjmedi.co.kr/
강원,원주시,18,5,158,Y,Y,Y,연세대학교원주세브란스기독병원,033-741-1641,강원특별자치도 원주시 일산로 20,127.945738,37.347815,https://www.instagram.com/wonju_severance/
강원,강릉시,12,5,36,Y,Y,Y,강릉동인병원,033-650-6105,강원특별자치도 강릉시 강릉대로419번길 42,128.90735,37.77435,http://www.dong-in.or.kr/
강원,강릉시,4,2,31,Y,Y,Y,강원특별자치도강릉의료원,033-610-1234,강원특별자치도 강릉시 경강로 2007 강릉의료원,128.8888317,37.7492828,https://www.gnmc.or.kr/
강원,강릉시,8,6,76,Y,Y,Y,강릉아산병원,033-610-3333,강원특별자치도 강릉시 사천면 방동길 38 강릉아산병원,128.8578411,37.8184324,http://www.gnah.co.kr/
강원,동해시,5,2,82,Y,Y,Y,근로복지공단동해병원,033-530-3119,강원특별자치도 동해시 하평로 11 동해병원,129.106078,37.5321225,https://www.comwel.or.kr/donghae/index.jsp
강원,동해시,0,0,29,Y,Y,Y,동해동인병원,033-530-0129,강원특별자치도 동해시 하평로 26,129.1074625,37.5299417,http://www.dhdongin.or.kr/
강원,태백시,8,2,47,Y,Y,Y,근로복지공단태백병원,033-580-3119,강원특별자치도 태백시 보드미길 8,129.0043366,37.1040964,https://www.comwel.or.kr/taebaek/index.jsp
강원,속초시,16,3,86,Y,Y,Y,강원특별자치도속초의료원,033-630-6036,강원특별자치도 속초시 영랑호반길 3 속초의료원,128.5892485,38.2164607,http://www.sokchomc.co.kr/
강원,속초시,8,4,19,Y,Y,Y,속초보광병원,033-639-8988,강원특별자치도 속초시 중앙로 11,128.5783901,38.1980014,http://www.속초보광병원.com/main/main.php
강원,삼척시,11,2,15,Y,Y,Y,강원특별자치도삼척의료원,033-570-7431,강원특별자치도 삼척시 오십천로 418,129.1638017,37.4403018,http://www.ksmc.or.kr/
강원,홍천군,10,2,2,Y,Y,Y,홍천아산병원,033-430-5119,강원특별자치도 홍천군 홍천읍 산림공원1길 17,127.8948538,37.6908303,https://hch.asanfoundation.or.kr/
강원,횡성군,7,1,33,Y,Y,Y,횡성대성병원,033-345-1191,강원특별자치도 횡성군 횡성읍 횡성로 275 대성병원,127.9797573,37.4782572,http://대성병원.kr/
강원,영월군,8,2,43,Y,Y,Y,강원특별자치도영월의료원,033-370-9129,강원특별자치도 영월군 영월읍 중앙1로 59 강원특별자치도영월의료원,128.4652387,37.1864525,http://www.youngwol.org/
강원,평창군,6,Unknown,20,N1,Y,Y,평창군보건의료원,033-330-4812,강원특별자치도 평창군 평창읍 노성로 11,128.3907514,37.3689436,https://www.pc.go.kr/health
강원,정선군,5,Unknown,42,N1,Y,Y,근로복지공단정선병원,033-560-7150,강원특별자치도 정선군 정선읍 봉양1길 145 근로복지공단 정선병원,128.6587349,37.3830727,https://www.comwel.or.kr/jeongseon/index.jsp
강원,철원군,4,2,42,Y,Y,Y,철원병원,033-450-3300,강원특별자치도 철원군 갈말읍 명성로 208 철원병원,127.3079502,38.1504492,http://pf.kakao.com/_wncLT
강원,화천군,7,Unknown,16,N1,Y,Y,화천군보건의료원,033-440-2880,강원특별자치도 화천군 강변로 111 화천군보건의료원,127.7090502,38.1072478,http://www.ihc.go.kr/home/main/page/sub04/sub04_05_05_01_02.asp
강원,양구군,9,Unknown,33,N1,Y,Y,양구성심병원,033-480-8816,강원특별자치도 양구군 중심로 160,127.9911463,38.104748,Unknown
충청북도,청주시 상당구,6,2,68,Y,Y,Y,한국병원,043-222-6177,충청북도 청주시 상당구 단재로 106,127.4965379,36.6195069,http://www.hanhsp.co.kr/
충청북도,청주시 상당구,15,3,63,Y,Y,Y,효성병원,043-221-2192,충청북도 청주시 상당구 쇠내로 16 효성병원,127.4953372,36.6244786,http://www.5388hyosunghospital.com/
충청북도,청주시 서원구,23,11,325,Y,Y,Y,충북대학교병원,043-269-6114,충청북도 청주시 서원구 1순환로 776 충북대학교병원,127.4614843,36.6242237,https://www.youtube.com/@cbnuh
충청북도,청주시 서원구,12,5,157,Y,Y,Y,충청북도청주의료원,043-279-0119,충청북도 청주시 서원구 흥덕로 48,127.4730326,36.6402026,http://www.cjmc.or.kr/
충청북도,청주시 흥덕구,8,4,91,Y,Y,Y,하나병원,043-230-6594,충청북도 청주시 흥덕구 2순환로 1262,127.4308626,36.6235046,http://www.cjhana.co.kr/
충청북도,청주시 흥덕구,7,4,164,Y,Y,Y,베스티안병원,043-904-8925,충청북도 청주시 흥덕구 오송읍 오송생명1로 191,127.321646,36.6364891,https://www.youtube.com/@bestian_burn
충청북도,청주시 청원구,5,8,136,Y,Y,Y,청주성모병원,043-219-8119,충청북도 청주시 청원구 주성로 173-19 청주성모병원,127.4856545,36.6737973,http://www.ccmc.or.kr/
충청북도,충주시,17,6,76,Y,Y,Y,건국대학교충주병원,043-840-8330,Unknown,127.9286382,36.9789989,http://www.kuh.co.kr/
충청북도,충주시,7,2,138,Y,Y,Y,충청북도충주의료원,043-871-0119,충청북도 충주시 안림로 239-50 충청북도충주의료원,127.9706116,36.9796505,http://www.cjmct.or.kr/
충청북도,제천시,13,1,57,Y,Y,Y,명지병원,043-640-8117,충청북도 제천시 내토로 991,128.233951,37.1634681,http://www.jcmj.co.kr/
충청북도,제천시,12,3,36,Y,Y,Y,제천서울병원,043-643-2327,충청북도 제천시 숭문로 57,128.2062355,37.138611,http://www.seoulhp.co.kr/
충청북도,옥천군,6,1,33,Y,Y,Y,옥천성모병원,043-730-7119,충청북도 옥천군 옥천읍 성왕로 1195,127.5720868,36.3134813,Unknown
충청북도,영동군,8,2,24,Y,Y,Y,영동병원,043-740-9333,충청북도 영동군 영동읍 대학로 106 감고을요양병원,127.7808936,36.1852368,http://www.ydhos.com/
충청북도,진천군,3,5,80,Y,Y,Y,중앙제일병원,043-537-9119,충청북도 진천군 진천읍 중앙북로 36,127.4404043,36.8585629,http://www.jcsungmo.co.kr/
충청북도,괴산군,8,1,47,Y,Y,Y,괴산성모병원,043-830-5419,충청북도 괴산군 괴산읍 임꺽정로 116,127.7842528,36.8154399,http://www.goesansungmoh.co.kr/
충청남도,천안시 동남구,11,6,220,Y,Y,Y,단국대학교의과대학부속병원,041-550-6840,충청남도 천안시 동남구 망향로 201,127.1723207,36.8417166,Unknown
충청남도,천안시 동남구,4,6,141,Y,Y,Y,동은학원순천향대학교부속천안병원,041-590-7019,충청남도 천안시 동남구 순천향6길 31,127.1358587,36.802738,https://www.youtube.com/schmccheonan
충청남도,천안시 동남구,10,3,151,Y,Y,Y,충청남도천안의료원,041-570-7119,충청남도 천안시 동남구 충절로 537,127.1791797,36.775627,http://www.camc.or.kr/
충청남도,천안시 서북구,10,5,18,Y,Y,Y,천안충무병원,041-570-7519,충청남도 천안시 서북구 다가말3길 8,127.1316055,36.7974289,http://www.cmhos.co.kr/
충청남도,공주시,13,6,108,Y,Y,Y,충청남도공주의료원,041-962-1365,충청남도 공주시 무령로 77,127.1094761,36.458987,http://www.gjmc.or.kr/
충청남도,보령시,5,2,67,Y,Y,Y,보령아산병원,041-930-5333,충청남도 보령시 죽성로 136,126.6228522,36.3811282,http://www.brh.or.kr/
충청남도,아산시,10,3,235,Y,Y,Y,아산충무병원,041-536-6519,충청남도 아산시 문화로 381,127.0198062,36.7792647,https://blog.naver.com/asancmhos
충청남도,서산시,9,3,37,Y,Y,Y,서산중앙병원,041-661-1195,충청남도 서산시 수석산업로 5,126.5034636,36.7810108,https://www.instagram.com/seosanjungang_mc/
충청남도,서산시,7,3,21,Y,Y,Y,충청남도서산의료원,041-689-7119,충청남도 서산시 중앙로 149 충청남도서산의료원,126.4652577,36.7755834,http://www.seosanmc.or.kr/
충청남도,논산시,14,2,62,Y,Y,Y,백제병원,041-730-8888,충청남도 논산시 시민로294번길 14,127.0944739,36.1921929,http://www.bjhosp.co.kr/
충청남도,당진시,13,4,72,Y,Y,Y,당진종합병원,041-358-3624,충청남도 당진시 반촌로 5-15,126.6844488,36.9044002,http://www.dangjinmc.co.kr/
충청남도,부여군,8,1,20,N1,Y,Y,건양대학교부여병원,041-837-1201,충청남도 부여군 부여읍 계백로 200 건양대부여병원,126.9017016,36.2755745,http://www.kyuh.ac.kr/buyeo/
충청남도,서천군,5,Unknown,40,N1,Y,Y,서해병원,041-950-0219,충청남도 서천군 서천읍 서천로 184 서해병원,126.6876615,36.0844072,Unknown
충청남도,청양군,6,1,11,N1,Y,Y,청양군보건의료원,041-940-4951,충청남도 청양군 청양읍 칠갑산로7길 54 청양군보건의료원,126.8045129,36.4553429,http://health.cheongyang.go.kr/
충청남도,홍성군,13,4,136,Y,Y,Y,충청남도홍성의료원,041-630-6119,충청남도 홍성군 홍성읍 조양로 224,126.6744129,36.599349,http://www.hsmc.or.kr/
충청남도,태안군,9,Unknown,23,N1,Y,Y,태안군보건의료원,041-671-5319,충청남도 태안군 서해로 1952-16 태안군보건의료원,126.3231999,36.7518329,http://www.taean.go.kr/life/sub02_10_01.do
전주시,완산구,21,6,84,Y,Y,Y,예수병원,063-230-8280,전북특별자치도 전주시 완산구 서원로 365 예수병원,127.1332292,35.8143916,http://www.jesushospital.com
전주시,완산구,11,Unknown,17,Y,Y,Y,전주병원,063-226-6119,전북특별자치도 전주시 완산구 한두평3길 13,127.1248245,35.8152645,http://www.jjhospital.co.kr/
전주시,덕진구,16,14,420,Y,Y,Y,전북대학교병원,063-250-1131,전북특별자치도 전주시 덕진구 건지로 20 전북대학교병원,127.1411625,35.8470973,http://www.cuh.co.kr/
전주시,덕진구,6,2,25,Y,Y,Y,대자인병원,063-250-8701,전북특별자치도 전주시 덕진구 견훤로 390 대자인병원,127.1534706,35.8459659,http://www.designhosp.com/
전주시,덕진구,8,1,13,Y,Y,Y,호성전주병원,063-240-8862,전북특별자치도 전주시 덕진구 동부대로 895,127.147875,35.8654999,https://blog.naver.com/hsjj_hospital/
군산시, ,10,5,80,Y,Y,Y,전북특별자치도군산의료원,063-472-5130,전북특별자치도 군산시 의료원로 27 군산의료원,126.7117406,35.9549526,http://www.kunmed.or.kr/
군산시, ,10,6,53,Y,Y,Y,동군산병원,063-440-0515,전북특별자치도 군산시 조촌로 149 동군산병원,126.737162,35.9774829,http://www.donggunsanhosp.co.kr/
익산시, ,12,9,227,Y,Y,Y,원광대학교병원,063-859-1165,전북특별자치도 익산시 무왕로 895 원광대학병원,126.9595793,35.9646389,http://www.wkuh.org/
익산시, ,9,4,-9,Y,Y,Y,익산병원,063-840-9112,전북특별자치도 익산시 무왕로 969 익산병원,126.9665158,35.9616504,http://www.iksanhp.com/
정읍시, ,16,3,63,Y,Y,Y,정읍아산병원,063-530-6129,전북특별자치도 정읍시 충정로 606-22 정읍아산병원,126.8234124,35.5888321,http://www.jeh.or.kr/
남원시, ,15,1,91,Y,Y,Y,전북특별자치도 남원의료원,063-620-1119,전북특별자치도 남원시 충정로 365,127.4073171,35.4318755,http://www.namwonmed.or.kr/
김제시, ,10,2,86,Y,Y,Y,김제우석병원,063-540-5119,전북특별자치도 김제시 서암4길 45,126.880348,35.8072242,http://gimjewoosuk.com
진안군, ,6,2,46,Y,Y,Y,진안군의료원,063-430-7119,전북특별자치도 진안군 진안읍 진무로 1145,127.4320459,35.7953017,http://www.jgmc.kr/
무주군, ,4,Unknown,24,N1,Y,Y,무주군보건의료원,063-320-8315,전북특별자치도 무주군 한풍루로 413,127.6716938,36.0058715,Unknown
장수군, ,5,Unknown,22,N1,Y,Y,장수군보건의료원,063-350-2119,전북특별자치도 장수군 장수읍 장천로 247 장수보건의료원,127.5200201,35.6544833,http://office.jangsu.go.kr/board/list.sko?boardId=office_notice12&menuCd=ND12001000000&contentsSid=222115
임실군, ,2,Unknown,Unknown,N1,Y,Y,임실군보건의료원,063-640-3119,전북특별자치도 임실군 임실읍 호국로 1680,127.2870869,35.6126018,http://bogun.imsil.go.kr/
순창군, ,9,Unknown,30,N1,Y,Y,순창군보건의료원,063-650-5352,전북특별자치도 순창군 순창읍 교성로 135 순창군보건의료원,127.1440999,35.3669575,http://health.sunchang.go.kr/
고창군, ,9,2,56,Y,Y,Y,고창병원,063-560-5558,전북특별자치도 고창군 고창읍 화신1길 9,126.6933531,35.4364278,http://www.gchospital.net/
부안군, ,9,3,38,Y,Y,Y,부안성모병원,063-580-8119,전북특별자치도 부안군 부안읍 오정2길 24 부안성모병원,126.7345708,35.72484,http://www.smhsp.co.kr/
전라남도,목포시,7,2,59,Y,Y,Y, 세안종합병원,061-260-6666,전라남도 목포시 고하대로 795-2,126.380233,34.8168191,http://www.seian.kr/
전라남도,목포시,15,3,52,Y,Y,Y,목포기독병원,061-280-7119,전라남도 목포시 백년대로 303 목포기독병원,126.4205999,34.8045332,http://www.mch.co.kr/
전라남도,목포시,11,1,69,Y,Y,Y,목포한국병원,061-270-5666,전라남도 목포시 영산로 483,126.4164222,34.8092996,http://www.hank.co.kr/
전라남도,목포시,8,3,96,Y,Y,Y,목포시의료원,061-260-6400,전라남도 목포시 이로로 18 목포의료원,126.4053626,34.8039838,http://www.mokpomc.or.kr/
전라남도,여수시,15,3,125,Y,Y,Y,여천전남병원,061-690-6118,전라남도 여수시 무선로 95 여천전남병원,127.6543239,34.7691121,http://yccnhosp.com/
전라남도,여수시,7,6,61,Y,Y,Y, 여수제일병원,061-689-8119,전라남도 여수시 쌍봉로 70,127.6634937,34.7661014,Unknown
전라남도,여수시,7,4,44,Y,Y,Y,여수전남병원,061-640-7118,전라남도 여수시 좌수영로 49 전남병원,127.728018,34.7450673,http://www.yscnhosp.com/
전라남도,순천시,7,2,48,Y,Y,Y,순천제일병원,061-720-3800,전라남도 순천시 기적의도서관1길 3,127.524175,34.9549262,http://www.scjh.co.kr/
전라남도,순천시,9,3,52,Y,Y,Y,전라남도순천의료원,061-759-9119,전라남도 순천시 서문성터길 2 순천의료원,127.4834681,34.9579097,http://www.jsmc.or.kr/
전라남도,순천시,-2,4,74,Y,Y,Y,성가롤로병원,061-720-6119,전라남도 순천시 순광로 221,127.5437073,34.9647333,http://www.stcarollo.or.kr/
전라남도,순천시,10,3,87,Y,Y,Y,한국병원,061-740-5119,전라남도 목포시 영산로 483,126.4164222,34.8092996,http://www.hank.co.kr/
전라남도,나주시,7,2,54,Y,Y,Y,나주종합병원,061-330-6112,전라남도 나주시 영산로 5419 나주병원,126.7213974,35.0363158,http://www.ngh.co.kr/
전라남도,나주시,7,4,47,Y,Y,Y,빛가람종합병원,061-820-0909,전라남도 나주시 정보화길 49 빛가람동,126.7987338,35.0241372,http://www.bitgaramhospital.co.kr/
전라남도,광양시,8,0,76,Y,Y,Y,광양사랑병원,061-797-7119,전라남도 광양시 공영로 71 사랑병원,127.6969656,34.9361845,http://www.gysarang.com/
전라남도,광양시,7,3,46,Y,Y,Y, 광양서울병원,061-798-9819,전라남도 광양시 진등길 93 광양서울병원,127.6905821,34.9579361,http://www.gsh119.co.kr/
전라남도,담양군,6,2,29,N1,Y,Y,담양사랑병원,061-380-9119,전라남도 담양군 담양읍 천변7길 19,126.9825102,35.3153616,https://damyangsarang.modoo.at
전라남도,곡성군,3,1,3,N1,Y,Y,곡성사랑병원,061-360-6008,전라남도 곡성군 곡성읍 곡성로 761,127.2879035,35.2762592,http://www.gssarang.com/
전라남도,구례군,10,1,31,N1,Y,Y,구례병원,061-780-3200,전라남도 구례군 동편제길 4,127.4639375,35.2159095,Unknown
전라남도,고흥군,9,2,190,Y,Y,Y,고흥종합병원,061-830-3118,전라남도 고흥군 고흥읍 고흥로 1935,127.2939625,34.6210654,http://www.kgh.kr/
전라남도,고흥군,3,2,57,Y,Y,Y,녹동현대병원,061-840-1119,전라남도 고흥군 도양읍 차경구렁목길 215,127.1457,34.5462582,https://www.ndhh.or.kr/
전라남도,보성군,8,2,51,N1,Y,Y,보성아산병원,061-850-3119,전라남도 보성군 미력면 가평길 36-17,127.1045625,34.7758583,http://bsh.asanfoundation.or.kr
전라남도,보성군,6,1,36,N1,Y,Y,삼호병원,061-859-5119,전라남도 보성군 벌교읍 남하로 12 정자,127.3456592,34.8338452,http://www.sshp.co.kr/index.asp
전라남도,화순군,12,7,318,Y,Y,Y,화순전남대학교병원,061-379-8882,전라남도 화순군 화순읍 서양로 322 화순전남대학교병원,127.0025,35.0594333,http://www.cnuhh.com/
전라남도,장흥군,8,2,1,Y,Y,Y, 장흥종합병원,061-860-1119,전라남도 장흥군 장흥읍 흥성로 74,126.9109162,34.6771314,http://www.jhghp.co.kr/
전라남도,장흥군,4,2,50,Y,Y,Y,장흥우리병원,061-860-0119,전라남도 장흥군 장흥읍 흥성로 83 우리병원,126.9110663,34.6783837,http://www.jhwh.co.kr/
전라남도,강진군,8,3,154,Y,Y,Y,전라남도강진의료원,061-430-1109,전라남도 강진군 강진읍 탐진로 5,126.7578653,34.6368113,http://www.gjmed.or.kr/
전라남도,해남군,14,1,79,Y,Y,Y,해남우리종합병원,061-530-7119,전라남도 해남군 옥천면 해남로 597 해남우리병원,126.6465632,34.584252,http://hnwoori.co.kr/
전라남도,해남군,9,3,149,Y,Y,Y, 해남종합병원,061-530-0119,전라남도 해남군 해남로 45,126.6127914,34.5717971,http://www.hngh.kr/
전라남도,영암군,8,0,27,N1,Y,Y,영암한국병원,061-470-7118,전라남도 영암군 영암읍 오리정길 8,126.7011015,34.7942934,http://yeongamhankuk.co.kr/
전라남도,무안군,4,2,26,Y,Y,Y,무안병원,061-450-3119,전라남도 무안군 무안읍 몽탄로 65 무안병원,126.4893984,34.9916301,http://www.muangh.co.kr/
전라남도,영광군,10,2,43,Y,Y,Y, 영광기독병원,061-350-3080,전라남도 영광군 영광읍 신남로 265,126.5108769,35.2749379,http://www.ygch.co.kr/
전라남도,영광군,9,3,74,Y,Y,Y,영광종합병원,061-350-8129,전라남도 영광군 영광읍 와룡로 3,126.4989779,35.2844615,http://www.ygmc.co.kr/
전라남도,장성군,2,Unknown,64,N1,N1,Y, 장성병원,061-390-9119,전라남도 장성군 장성읍 역전로 171,126.7835664,35.305868,http://www.jshospital.co.kr
전라남도,완도군,4,1,63,N1,Y,Y,완도대성병원,061-554-9500,전라남도 완도군 완도읍 청해진동로 63,126.7355749,34.3171667,http://www.wandodaesung.co.kr
전라남도,진도군,4,Unknown,27,N1,N1,Y,진도한국병원,061-244-2310,전라남도 진도군 진도읍 남문길 48,126.2640943,34.4824203,Unknown
전라남도,신안군,4,Unknown,20,N1,Y,Y,신안대우병원,061-262-3309,전라남도 신안군 비금면 송치길 155-11,125.9326074,34.7222701,Unknown
경상북도,포항시 남구,1,7,87,Y,Y,Y,포항성모병원,054-260-8600,경상북도 포항시 남구 대잠동길 17 포항 성모병원,129.3399527,36.0159002,http://www.pohangsmh.co.kr/
경상북도,포항시 남구,6,7,58,Y,Y,Y,포항세명기독병원,054-289-1711,경상북도 포항시 남구 포스코대로 351,129.3622256,36.0177171,http://www.phgidok.com/
경상북도,포항시 남구,4,2,21,Y,Y,Y,에스포항병원,054-289-9120,경상북도 포항시 남구 희망대로 352 에스포항병원,129.3314129,36.0348142,https://youtube.com/channel/UCijsNLKDSnCUgH9bpxyZrwg
경상북도,포항시 북구,10,4,132,Y,Y,Y,좋은선린병원,054-245-5200,경상북도 포항시 북구 대신로 43,129.3670367,36.048263,http://www.goodsunlin.or.kr/
경상북도,포항시 북구,8,3,92,Y,Y,Y,경상북도포항의료원,054-245-0129,경상북도 포항시 북구 용흥로 36 포항의료원,129.3549409,36.0348813,https://pmc.or.kr/
경상북도,경주시,5,3,70,Y,Y,Y,동국대학교의과대학경주병원,054-770-8306,경상북도 경주시 동대로 87,129.1966582,35.8583075,http://www.dumc.or.kr/gj
경상북도,김천시,15,5,43,Y,Y,Y,경상북도김천의료원,054-429-8234,경상북도 김천시 모암길 24 김천의료원,128.1264391,36.1227232,http://www.gcmc.or.kr/
경상북도,김천시,9,4,67,Y,Y,Y,김천제일병원,054-420-9500,경상북도 김천시 신음1길 12,128.1187922,36.1354003,http://www.jeilh.com/
경상북도,안동시,6,3,97,Y,Y,Y,안동성소병원,054-850-8282,경상북도 안동시 서동문로 99 안동성소병원,128.7228172,36.5672422,http://www.sungso.com/
경상북도,안동시,2,3,73,Y,Y,Y,안동병원,054-840-0119,경상북도 안동시 앙실로 11 안동병원,128.7010976,36.5467408,http://www.agh.co.kr/
경상북도,안동시,4,5,49,Y,Y,Y,경상북도안동의료원,054-850-6100,경상북도 안동시 태사2길 55 안동의료원,128.7321116,36.5682205,http://www.amc.or.kr/
경상북도,구미시,11,2,98,Y,Y,Y,순천향대학교부속구미병원,054-468-9119,경상북도 구미시 1공단로 179 구미순천향병원,128.3827377,36.1029181,http://www.schmc.ac.kr/gumi/kor/index.do
경상북도,구미시,14,1,77,Y,Y,Y,차의과학대학교부속구미차병원,054-450-9998,경상북도 구미시 신시로10길 12 차의과학대학교 부속 구미차병원,128.3405414,36.1145324,http://kumi.chamc.co.kr/
경상북도,구미시,4,5,23,Y,Y,Y,구미강동병원,054-478-9521,경상북도 구미시 인동20길 46,128.4227832,36.0962037,http://www.gumigd.com
경상북도,영주시,4,1,13,N1,Y,Y,영주기독병원,054-635-3050,경상북도 영주시 구성로 380,128.6211143,36.8251759,Unknown
경상북도,영주시,7,3,70,Y,Y,Y,영주적십자병원,054-630-0112,경상북도 영주시 대학로 327,128.6040108,36.8253365,https://www.rch.or.kr/web/rchyoungju/main
경상북도,영천시,6,2,22,Y,Y,Y,영남대학교의과대학부속영천병원,054-330-7575,경상북도 영천시 오수1길 10,128.9136295,35.9575661,Unknown
경상북도,상주시,9,3,26,Y,Y,Y,상주성모병원,054-530-7811,경상북도 상주시 냉림서성길 7,128.1597337,36.4203906,https://www.facebook.com/smh5001
경상북도,상주시,8,2,80,Y,Y,Y,상주적십자병원,054-530-3171,경상북도 상주시 상서문로 53,128.1555556,36.4146221,http://www.rch.or.kr/sangju
경상북도,문경시,16,3,68,Y,Y,Y,문경제일병원,054-550-7777,경상북도 문경시 당교3길 25,128.189225,36.58444,http://www.mgjh.co.kr/
경상북도,경산시,1,3,56,Y,Y,Y,경산중앙병원,053-715-0119,경상북도 경산시 경안로 11 경산중앙병원,128.7401912,35.8088799,https://www.instagram.com/gsjoongang
경상북도,경산시,6,2,4,Y,Y,Y,세명병원,053-819-8500,경상북도 경산시 경안로 208,128.7371689,35.8263331,https://blog.naver.com/sm8198800
경상북도,의성군,4,1,27,N1,Y,Y,영남제일병원,054-861-9111,경상북도 의성군 안계면 용기4길 36,128.4343159,36.3892713,Unknown
경상북도,청송군,5,Unknown,38,N1,Y,Y,청송군보건의료원,054-870-7119,경상북도 청송군 청송읍 의료원길 19 청송보건의료원,129.0526302,36.4310215,http://health.cs.go.kr/
경상북도,청도군,10,1,91,Y,Y,Y,청도대남병원,054-370-5112,경상북도 청도군 화양읍 청화로 79-7,128.7369709,35.6488394,http://www.daenamhosp.co.kr/
경상북도,고령군,5,1,32,N1,Y,Y,고령영생병원,070-7475-0024,경상북도 고령군 대가야읍 중앙로 33 영생병원,128.2720182,35.7298852,Unknown
경상북도,예천군,6,1,84,Y,Y,Y,예천권병원,054-650-2119,경상북도 예천군 예천읍 시장로 136 장례식장,128.4589419,36.6574115,http://www.yckh.com/
경상북도,울진군,8,3,32,Y,Y,Y,울진군의료원,054-785-7119,경상북도 울진군 울진읍 현내항길 71 울진군의료원,129.4095737,36.992696,http://www.umc.or.kr/
경상북도,울릉군,5,1,24,N1,Y,Y,울릉군보건의료원,054-790-6911,경상북도 울릉군 울릉읍 울릉순환로 396-18,130.8995243,37.4858676,http://www.ulleung.go.kr/health
경상남도,창원시 의창구,12,2,85,Y,Y,Y,창원한마음병원,055-225-0350,경상남도 창원시 의창구 용동로57번길 8,128.6990592,35.2379183,https://www.instagram.com/hanheart_hospital
경상남도,창원시 의창구,11,6,101,Y,Y,Y,창원파티마병원,055-270-1119,경상남도 창원시 의창구 창이대로 45 창원파티마병원,128.6459129,35.237293,https://www.facebook.com/fatimahosp/
경상남도,창원시 성산구,3,9,127,Y,Y,Y,창원경상국립대학교병원,055-214-1339,경상남도 창원시 성산구 삼정자로 11 창원경상대학교병원,128.7078463,35.1990872,http://www.gnuch.co.kr/
경상남도,창원시 마산합포구,12,3,100,Y,Y,Y,경상남도마산의료원,055-249-1119,경상남도 창원시 마산합포구 3·15대로 231 마산의료원,128.5655966,35.199237,http://www.mmc.or.kr/
경상남도,창원시 마산합포구,12,0,55,Y,Y,Y,에스엠지연세병원,055-240-7777,경상남도 창원시 마산합포구 3·15대로 76,128.5615852,35.1863059,https://www.youtube.com/@smgyeonse
경상남도,창원시 마산회원구,9,2,87,Y,Y,Y,청아병원,055-230-1700,경상남도 창원시 마산회원구 내서읍 광려천서로 67 청아병원,128.5096499,35.2480349,http://www.camc.co.kr/
경상남도,창원시 마산회원구,11,8,194,Y,Y,Y,성균관대학삼성창원병원,055-233-6119,경상남도 창원시 마산회원구 팔용로 158,128.5923771,35.2424957,http://smc.skku.edu/
경상남도,창원시 진해구,9,2,104,Y,Y,Y,연세에스병원,055-548-7789,경상남도 창원시 진해구 해원로32번길 13 연세에스병원,128.6981494,35.1549331,http://www.yonseis.com/
경상남도,진주시,17,11,303,Y,Y,Y,경상국립대학교병원,055-750-8282,경상남도 진주시 강남로 79,128.0956716,35.1763252,https://www.gnuh.co.kr/
경상남도,진주시,7,3,81,Y,Y,Y,반도병원,055-749-0200,경상남도 진주시 남강로 701,128.0882554,35.1918013,http://www.bandoh.co.kr/
경상남도,진주시,5,0,77,Y,Y,Y,진주고려병원,055-751-2525,경상남도 진주시 동진로 2 진주고려병원,128.0920864,35.1784915,http://www.jinjukoreahospital.co.kr/
경상남도,진주시,10,4,21,Y,Y,Y,한일병원,055-750-1333,경상남도 진주시 범골로 17,128.128624,35.1669657,http://www.hanilhosp.co.kr/
경상남도,진주시,6,2,47,Y,Y,Y,진주복음병원,055-749-7119,경상남도 진주시 진양호로 370,128.0693674,35.1853747,http://jghospital.co.kr/
경상남도,진주시,10,3,40,Y,Y,Y,제일병원,055-750-7119,경상남도 진주시 진주대로 885 제일병원,128.0902544,35.1794722,https://www.instagram.com/chinju_jeil_hospital/
경상남도,통영시,7,3,80,Y,Y,Y,새통영병원,055-640-4119,경상남도 통영시 무전7길 192 새통영병원,128.4207176,34.865362,Unknown
경상남도,사천시,9,2,26,Y,Y,Y, 삼천포서울병원,055-830-9019,경상남도 사천시 남일로 33,128.0804186,34.9332698,http://www.3004sh.com/
경상남도,사천시,7,2,91,Y,Y,Y,삼천포제일병원,055-830-3099,경상남도 사천시 중앙로 136 삼천포제일병원,128.079592,34.9375064,https://youtube.com/@4000sjh
경상남도,김해시,4,4,64,Y,Y,Y,강일병원,055-822-0119,경상남도 김해시 가락로 359,128.8696518,35.2567401,https://www.instagram.com/kangilhospital
경상남도,김해시,8,3,49,Y,Y,Y, 조은금강병원,055-330-0200,경상남도 김해시 김해대로 1814-37,128.8615328,35.2623213,http://www.ggmc.or.kr/
경상남도,김해시,8,4,63,Y,Y,Y, 갑을장유병원,055-310-6119,경상남도 김해시 장유로 167-13,128.8056,35.2086763,https://blog.naver.com/kbhospital
경상남도,김해시,15,4,46,Y,Y,Y, 김해복음병원,055-330-8844,경상남도 김해시 활천로 33 김해복음병원,128.8931625,35.2306262,https://blog.naver.com/gimhaebokum
경상남도,밀양시,9,3,35,Y,Y,Y,밀양윤병원,055-802-7314,경상남도 밀양시 삼문중앙로 32,128.7555903,35.4847247,http://www.myyh.co.kr/
경상남도,거제시,7,3,26,Y,Y,Y, 거붕 백병원,055-733-0180,경상남도 거제시 계룡로5길 14 거붕 백병원,128.6261659,34.8736094,http://www.gbh.or.kr/
경상남도,거제시,7,2,45,Y,Y,Y,대우병원,055-680-8119,경상남도 거제시 두모길 16,128.7220923,34.8719576,https://www.instagram.com/dwho_1983/
경상남도,거제시,9,2,14,Y,Y,Y,맑은샘병원,055-736-0119,경상남도 거제시 연초면 거제대로 4477,128.6437581,34.8978348,http://www.clearwell.kr/
경상남도,양산시,18,12,425,Y,Y,Y,양산부산대학교병원,055-360-1463,경상남도 양산시 물금읍 금오로 20,129.0057274,35.32815,http://www.pnuyh.or.kr/
경상남도,의령군,2,Unknown,25,N1,Y,Y,의령병원,055-573-6806,경상남도 의령군 의령읍 의병로14길 10,128.25865,35.3185917,Unknown
경상남도,창녕군,9,2,73,Y,Y,Y,한성병원,055-530-5119,경상남도 창녕군 창녕읍 교리1길 2,128.493308,35.5421487,Unknown
경상남도,고성군,9,1,8,Y,Y,Y,강병원,055-673-4848,경상남도 고성군 고성읍 중앙로 49,128.3254109,34.9741871,http://www.강병원.kr/
경상남도,남해군,8,2,65,Y,Y,Y, 남해병원,055-860-6630,경상남도 남해군 남해읍 화전로 169,127.8942506,34.8464281,http://namhaehospital.com/?main=1
경상남도,산청군,9,Unknown,20,N1,Y,Y,산청군보건의료원,055-970-7582,경상남도 산청군 산청읍 중앙로 97 산청군보건의료원,127.884202,35.4160951,http://www.sancheong.go.kr/health
경상남도,함양군,4,2,30,Y,Y,Y,함양성심병원,055-964-4322,경상남도 함양군 함양읍 고운로 70,127.729213,35.520467,http://www.hysungsim.com
경상남도,거창군,8,2,31,Y,Y,Y,거창적십자병원,055-949-3359,경상남도 거창군 거창읍 중앙로 91 거창적십자병원,127.9087378,35.6867599,http://www.rch.or.kr/geochang/
경상남도,합천군,0,2,2,Y,Y,Y,삼성합천병원,070-5125-5030,경상남도 합천군 대야로 876 삼성합천병원,128.1633047,35.5664432,Unknown
제주,제주시,2,2,73,Y,Y,Y,제주한라병원,064-740-5158,제주특별자치도 제주시 도령로 65 한라병원,126.4850403,33.4899609,http://www.hallahosp.co.kr/
제주,제주시,9,3,22,Y,Y,Y, 한국병원,064-750-0160,제주특별자치도 제주시 서광로 193,126.517062,33.500233,http://www.hankookhospital.co.kr/
제주,제주시,5,5,192,Y,Y,Y,제주대학교병원,064-717-1114,제주특별자치도 제주시 아란13길 15 제주대학병원,126.5452108,33.4671105,http://www.jejunuh.co.kr
제주,제주시,8,2,68,Y,Y,Y,한마음병원,064-750-9119,제주특별자치도 제주시 연신로 52 한마음병원,126.5461843,33.4963114,http://www.hanmaeum.jeju.kr/
제주,제주시,8,5,85,Y,Y,Y, 중앙병원,064-786-7777,제주특별자치도 제주시 중앙로14길 8,126.5234809,33.5114805,https://blog.naver.com/udjeju1
제주,서귀포시,14,2,84,Y,Y,Y,제주특별자치도 서귀포의료원,064-730-3001,제주특별자치도 서귀포시 장수로 47,126.5639215,33.2555354,https://www.instagram.com/smc_jeju/
